STARLINK-30312          
1 57641U 23122K   26068.43991047  .00001626  00000+0  70282-4 0  9999
2 57641  43.0030  93.4926 0001693 243.6138 116.4539 15.26737903142171
TRANSPORTER-12 OBJECT BA
1 62657U 25009BA  26068.70118713  .00011330  00000+0  42733-3 0  9991
2 62657  97.3985 151.1390 0000403 234.6623 125.4579 15.27214003 63739
